FORMOSAT 7-3            
1 44343U 19036E   26068.82630502  .00006445  00000+0  37650-3 0  9997
2 44343  23.9981 141.9797 0001061 150.4425 209.6139 15.08933962368215
STARLINK-4478           
1 53529U 22101C   26068.41864919  .00026046  00000+0  15702-2 0  9998
2 53529  53.2154  75.1159 0003511  60.8817 299.2528 15.10614738196126
