[{"OBJECT_NAME":"FORMOSAT 7-3","OBJECT_ID":"2019-036E","EPOCH":"2026-03-09T19:49:52.754592","MEAN_MOTION":15.08933962,"ECCENTRICITY":0.00010606,"INCLINATION":23.9981,"RA_OF_ASC_NODE":141.9797,"ARG_OF_PERICENTER":150.4425,"MEAN_ANOMALY":209.6139,"EPHEMERIS_TYPE":0,"CLASSIFICATION_TYPE":"U","NORAD_CAT_ID":44343,"ELEMENT_SET_NO":999,"REV_AT_EPOCH":36821,"BSTAR":0.00037650049,"MEAN_MOTION_DOT":6.445e-5,"MEAN_MOTION_DDOT":0},{"OBJECT_NAME":"STARLINK-4478","OBJECT_ID":"2022-101C","EPOCH":"2026-03-09T10:02:51.290016","MEAN_MOTION":15.10614738,"ECCENTRICITY":0.00035117,"INCLINATION":53.2154,"RA_OF_ASC_NODE":75.1159,"ARG_OF_PERICENTER":60.8817,"MEAN_ANOMALY":299.2528,"EPHEMERIS_TYPE":0,"CLASSIFICATION_TYPE":"U","NORAD_CAT_ID":53529,"ELEMENT_SET_NO":999,"REV_AT_EPOCH":19612,"BSTAR":0.0015702237,"MEAN_MOTION_DOT":0.00026046,"MEAN_MOTION_DDOT":0}]
